<gpx xmlns:ns3="http://www.garmin.com/xmlschemas/TrackPointExtension/v1" xmlns="http://www.topografix.com/GPX/1/1" xmlns:xsi="http://www.w3.org/2001/XMLSchema-instance" xmlns:ns2="http://www.garmin.com/xmlschemas/GpxExtensions/v3" creator="Garmin Connect" version="1.1" xsi:schemaLocation="http://www.topografix.com/GPX/1/1 http://www.topografix.com/GPX/11.xsd">
  <extensions>
<distance>0.0</distance>
<average_hr>133.0</average_hr>
<average_speed>0.0</average_speed>
<start_time>2022-04-16T12:49:04+00:00</start_time>
<end_time>2022-04-16T13:31:43.223000+00:00</end_time>
<moving_time>0.0</moving_time>
<elapsed_time>3153.514</elapsed_time>
</extensions>
<metadata>
    <link href="connect.garmin.com">
      <text>Garmin Connect</text>
    </link>
    <time>2022-04-16T12:49:04.000Z</time>
  </metadata>
  <trk>
    <name>Indoor Rowing</name>
    <type>indoor_rowing</type>
    <trkseg/>
  </trk>
</gpx>
