<gpx xmlns:ns3="http://www.garmin.com/xmlschemas/TrackPointExtension/v1" xmlns="http://www.topografix.com/GPX/1/1" xmlns:xsi="http://www.w3.org/2001/XMLSchema-instance" xmlns:ns2="http://www.garmin.com/xmlschemas/GpxExtensions/v3" creator="Garmin Connect" version="1.1" xsi:schemaLocation="http://www.topografix.com/GPX/1/1 http://www.topografix.com/GPX/11.xsd">
  <extensions>
<distance>950.0</distance>
<average_hr>149.0</average_hr>
<average_speed>3.2596313528499468</average_speed>
<start_time>2023-08-25T12:02:20+00:00</start_time>
<end_time>2023-08-25T12:07:11.444000+00:00</end_time>
<moving_time>284.0</moving_time>
<elapsed_time>291.444</elapsed_time>
</extensions>
<metadata>
    <link href="connect.garmin.com">
      <text>Garmin Connect</text>
    </link>
    <time>2023-08-25T12:02:20.000Z</time>
  </metadata>
  <trk>
    <name>Running</name>
    <type>running</type>
    <trkseg/>
  </trk>
</gpx>
