<gpx xmlns:ns3="http://www.garmin.com/xmlschemas/TrackPointExtension/v1" xmlns="http://www.topografix.com/GPX/1/1" xmlns:xsi="http://www.w3.org/2001/XMLSchema-instance" xmlns:ns2="http://www.garmin.com/xmlschemas/GpxExtensions/v3" creator="Garmin Connect" version="1.1" xsi:schemaLocation="http://www.topografix.com/GPX/1/1 http://www.topografix.com/GPX/11.xsd">
  <extensions>
<distance>793.31</distance>
<average_hr>146.0</average_hr>
<average_speed>2.813999891281128</average_speed>
<start_time>2023-10-07T12:13:23+00:00</start_time>
<end_time>2023-10-07T12:18:04.885000+00:00</end_time>
<moving_time>272.0</moving_time>
<elapsed_time>281.885</elapsed_time>
</extensions>
<metadata>
    <link href="connect.garmin.com">
      <text>Garmin Connect</text>
    </link>
    <time>2023-10-07T12:13:23.000Z</time>
  </metadata>
  <trk>
    <name>Running</name>
    <type>running</type>
    <trkseg/>
  </trk>
</gpx>
