<gpx xmlns:ns3="http://www.garmin.com/xmlschemas/TrackPointExtension/v1" xmlns="http://www.topografix.com/GPX/1/1" xmlns:xsi="http://www.w3.org/2001/XMLSchema-instance" xmlns:ns2="http://www.garmin.com/xmlschemas/GpxExtensions/v3" creator="Garmin Connect" version="1.1" xsi:schemaLocation="http://www.topografix.com/GPX/1/1 http://www.topografix.com/GPX/11.xsd">
  <extensions>
<distance>28040.0</distance>
<average_hr>121.0</average_hr>
<average_speed>0.8310748242687245</average_speed>
<start_time>2023-11-03T21:04:28+00:00</start_time>
<end_time>2023-11-04T06:26:47.441000+00:00</end_time>
<moving_time>22531.836</moving_time>
<elapsed_time>33771.137</elapsed_time>
</extensions>
<metadata>
    <link href="connect.garmin.com">
      <text>Garmin Connect</text>
    </link>
    <time>2023-11-03T21:04:28.000Z</time>
  </metadata>
  <trk>
    <name>Aba Trail Running</name>
    <type>trail_running</type>
    <trkseg/>
  </trk>
</gpx>
