<gpx xmlns:ns3="http://www.garmin.com/xmlschemas/TrackPointExtension/v1" xmlns="http://www.topografix.com/GPX/1/1" xmlns:xsi="http://www.w3.org/2001/XMLSchema-instance" xmlns:ns2="http://www.garmin.com/xmlschemas/GpxExtensions/v3" creator="Garmin Connect" version="1.1" xsi:schemaLocation="http://www.topografix.com/GPX/1/1 http://www.topografix.com/GPX/11.xsd">
  <extensions>
<distance>0.0</distance>
<average_hr>151.0</average_hr>
<average_speed>0.0</average_speed>
<start_time>2023-12-16T09:06:13+00:00</start_time>
<end_time>2023-12-16T10:03:38.085000+00:00</end_time>
<moving_time>0.0</moving_time>
<elapsed_time>3445.085</elapsed_time>
</extensions>
<metadata>
    <link href="connect.garmin.com">
      <text>Garmin Connect</text>
    </link>
    <time>2023-12-16T09:06:13.000Z</time>
  </metadata>
  <trk>
    <name>爬楼</name>
    <type>floor_climbing</type>
    <trkseg/>
  </trk>
</gpx>
