<gpx xmlns:ns3="http://www.garmin.com/xmlschemas/TrackPointExtension/v1" xmlns="http://www.topografix.com/GPX/1/1" xmlns:xsi="http://www.w3.org/2001/XMLSchema-instance" xmlns:ns2="http://www.garmin.com/xmlschemas/GpxExtensions/v3" creator="Garmin Connect" version="1.1" xsi:schemaLocation="http://www.topografix.com/GPX/1/1 http://www.topografix.com/GPX/11.xsd">
  <extensions>
<distance>970.0</distance>
<average_hr>121.0</average_hr>
<average_speed>3.237715041022183</average_speed>
<start_time>2024-01-02T12:01:32+00:00</start_time>
<end_time>2024-01-02T12:06:31.594000+00:00</end_time>
<moving_time>290.0</moving_time>
<elapsed_time>299.594</elapsed_time>
</extensions>
<metadata>
    <link href="connect.garmin.com">
      <text>Garmin Connect</text>
    </link>
    <time>2024-01-02T12:01:32.000Z</time>
  </metadata>
  <trk>
    <name>Running</name>
    <type>running</type>
    <trkseg/>
  </trk>
</gpx>
