<gpx xmlns:ns3="http://www.garmin.com/xmlschemas/TrackPointExtension/v1" xmlns="http://www.topografix.com/GPX/1/1" xmlns:xsi="http://www.w3.org/2001/XMLSchema-instance" xmlns:ns2="http://www.garmin.com/xmlschemas/GpxExtensions/v3" creator="Garmin Connect" version="1.1" xsi:schemaLocation="http://www.topografix.com/GPX/1/1 http://www.topografix.com/GPX/11.xsd">
  <extensions>
<distance>0.0</distance>
<average_hr>146.0</average_hr>
<average_speed>0.0</average_speed>
<start_time>2024-01-05T12:10:36+00:00</start_time>
<end_time>2024-01-05T13:10:50.018000+00:00</end_time>
<moving_time>0.0</moving_time>
<elapsed_time>3614.018</elapsed_time>
</extensions>
<metadata>
    <link href="connect.garmin.com">
      <text>Garmin Connect</text>
    </link>
    <time>2024-01-05T12:10:36.000Z</time>
  </metadata>
  <trk>
    <name>爬楼</name>
    <type>floor_climbing</type>
    <trkseg/>
  </trk>
</gpx>
