<gpx xmlns:ns3="http://www.garmin.com/xmlschemas/TrackPointExtension/v1" xmlns="http://www.topografix.com/GPX/1/1" xmlns:xsi="http://www.w3.org/2001/XMLSchema-instance" xmlns:ns2="http://www.garmin.com/xmlschemas/GpxExtensions/v3" creator="Garmin Connect" version="1.1" xsi:schemaLocation="http://www.topografix.com/GPX/1/1 http://www.topografix.com/GPX/11.xsd">
  <extensions>
<distance>11035.29</distance>
<average_hr>160.0</average_hr>
<average_speed>3.1989998817443848</average_speed>
<start_time>2025-07-16T10:23:30+00:00</start_time>
<end_time>2025-07-16T11:20:59.744000+00:00</end_time>
<moving_time>3443.436</moving_time>
<elapsed_time>3672.088</elapsed_time>
</extensions>
<metadata>
    <link href="connect.garmin.com">
      <text>Garmin Connect</text>
    </link>
    <time>2025-07-16T10:23:30.000Z</time>
  </metadata>
  <trk>
    <name>Treadmill Running</name>
    <type>treadmill_running</type>
    <trkseg/>
  </trk>
</gpx>
