<gpx xmlns:ns3="http://www.garmin.com/xmlschemas/TrackPointExtension/v1" xmlns="http://www.topografix.com/GPX/1/1" xmlns:xsi="http://www.w3.org/2001/XMLSchema-instance" xmlns:ns2="http://www.garmin.com/xmlschemas/GpxExtensions/v3" creator="Garmin Connect" version="1.1" xsi:schemaLocation="http://www.topografix.com/GPX/1/1 http://www.topografix.com/GPX/11.xsd">
  <extensions>
<distance>11672.67</distance>
<average_hr>156.0</average_hr>
<average_speed>3.194999933242798</average_speed>
<start_time>2025-07-24T10:42:35+00:00</start_time>
<end_time>2025-07-24T11:43:28.901000+00:00</end_time>
<moving_time>3647.394</moving_time>
<elapsed_time>4025.898</elapsed_time>
</extensions>
<metadata>
    <link href="connect.garmin.com">
      <text>Garmin Connect</text>
    </link>
    <time>2025-07-24T10:42:35.000Z</time>
  </metadata>
  <trk>
    <name>Treadmill Running</name>
    <type>treadmill_running</type>
    <trkseg/>
  </trk>
</gpx>
