<gpx xmlns:ns3="http://www.garmin.com/xmlschemas/TrackPointExtension/v1" xmlns="http://www.topografix.com/GPX/1/1" xmlns:xsi="http://www.w3.org/2001/XMLSchema-instance" xmlns:ns2="http://www.garmin.com/xmlschemas/GpxExtensions/v3" creator="Garmin Connect" version="1.1" xsi:schemaLocation="http://www.topografix.com/GPX/1/1 http://www.topografix.com/GPX/11.xsd">
  <extensions>
<distance>7026.16</distance>
<average_hr>156.0</average_hr>
<average_speed>3.2300000190734868</average_speed>
<start_time>2025-08-31T10:05:30+00:00</start_time>
<end_time>2025-08-31T10:41:45.299000+00:00</end_time>
<moving_time>2150.732</moving_time>
<elapsed_time>2398.871</elapsed_time>
</extensions>
<metadata>
    <link href="connect.garmin.com">
      <text>Garmin Connect</text>
    </link>
    <time>2025-08-31T10:05:30.000Z</time>
  </metadata>
  <trk>
    <name>Treadmill Running</name>
    <type>treadmill_running</type>
    <trkseg/>
  </trk>
</gpx>
